OBJECT_NAME,OBJECT_ID,EPOCH,MEAN_MOTION,ECCENTRICITY,INCLINATION,RA_OF_ASC_NODE,ARG_OF_PERICENTER,MEAN_ANOMALY,EPHEMERIS_TYPE,CLASSIFICATION_TYPE,NORAD_CAT_ID,ELEMENT_SET_NO,REV_AT_EPOCH,BSTAR,MEAN_MOTION_DOT,MEAN_MOTION_DDOT
ONEWEB-0130,2020-100U,2026-06-09T06:16:08.050656,13.12443978,.00017331,87.8950,352.2289,91.6736,268.4591,0,U,47276,999,26360,-.90935876E-3,-.314E-5,0
ONEWEB-0131,2020-100V,2026-06-09T06:11:14.581824,13.12444062,.00017642,87.8937,352.2485,89.5174,270.6157,0,U,47277,999,26364,-.10404543E-2,-.362E-5,0
ONEWEB-0132,2020-100W,2026-06-09T06:52:44.522688,13.12443761,.0001741,87.8939,352.2443,88.5103,271.6225,0,U,47278,999,26354,.12180912E-2,.451E-5,0
ONEWEB-0133,2020-100X,2026-06-09T05:27:08.528256,13.12443731,.00016579,87.8954,352.2311,85.9154,274.2164,0,U,47279,999,26369,.61260702E-3,.233E-5,0
ONEWEB-0134,2020-100Y,2026-06-09T01:03:51.692256,13.12444917,.0001561,87.8953,352.2648,93.9717,266.1590,0,U,47280,999,26364,.23235008E-3,.96E-6,0
ONEWEB-0135,2020-100Z,2026-06-09T05:51:43.768512,13.12443341,.00014669,87.8938,352.2484,89.6786,270.4511,0,U,47281,999,26369,-.74230212E-3,-.254E-5,0
ONEWEB-0136,2020-100AA,2026-06-09T06:18:33.943104,13.12444455,.00015243,87.8948,352.2260,95.4992,264.6310,0,U,47282,999,26362,-.73554993E-3,-.252E-5,0
ONEWEB-0137,2020-100AB,2026-06-09T01:38:01.336128,13.12443281,.00019411,87.8951,352.2740,88.7401,271.3950,0,U,47283,999,26350,.10826236E-2,.402E-5,0
ONEWEB-0138,2020-100AC,2026-06-09T06:35:39.415200,13.12444213,.00016545,87.8950,352.2391,95.0384,265.0933,0,U,47284,999,26361,.36214611E-3,.143E-5,0
ONEWEB-0139,2020-100AD,2026-06-09T05:44:36.766752,13.12443463,.00017655,87.8947,352.2322,90.1701,269.9630,0,U,47285,999,26368,-.4729316E-3,-.157E-5,0
ONEWEB-0140,2020-100AE,2026-06-09T00:58:59.267136,13.12444002,.0001702,87.8949,352.2627,84.2522,275.8801,0,U,47286,999,26362,.52836289E-4,.32E-6,0
ONEWEB-0141,2020-100AF,2026-06-09T05:44:12.986880,13.12443265,.00020906,87.8949,352.2279,90.7004,269.4364,0,U,47287,999,26363,-.43112689E-3,-.142E-5,0
ONEWEB-0142,2020-100AG,2026-06-09T05:27:34.062048,13.12441827,.00020315,87.8943,352.2524,99.8148,260.3210,0,U,47288,999,26362,.63395179E-3,.241E-5,0
ONEWEB-0143,2020-100AH,2026-06-09T05:41:58.630560,13.12442917,.00018359,87.8948,352.2488,88.7392,271.3947,0,U,47289,999,26360,-.40300776E-3,-.132E-5,0
ONEWEB-0144,2020-100AJ,2026-06-09T06:50:18.971520,13.12444241,.00017004,87.8952,352.2131,101.2038,258.9282,0,U,47290,999,26353,.12219203E-2,.452E-5,0
ONEWEB-0145,2020-100AK,2026-06-09T06:08:48.601248,13.12443876,.00017998,87.8942,352.2480,92.1805,267.9530,0,U,47291,999,26372,-.10227014E-2,-.355E-5,0
ONEWEB-0146,2020-100AL,2026-06-09T06:03:56.083680,13.12443634,.00018189,87.8949,352.2393,78.1307,282.0026,0,U,47292,999,26363,-.12883571E-2,-.451E-5,0
ONEWEB-0147,2020-100AM,2026-06-09T01:35:35.066112,13.12443434,.00016177,87.8950,352.2578,88.4831,271.6483,0,U,47293,999,26350,.10859309E-2,.403E-5,0
ONEWEB-0115,2021-025A,2026-06-09T04:14:58.817760,13.13469769,.00017953,87.8952,321.8186,92.9693,267.1641,0,U,48042,999,25254,-.6199236E-3,-.214E-5,0
ONEWEB-0152,2021-025B,2026-06-09T04:34:28.937280,13.13470402,.00017532,87.8954,321.8124,90.6043,269.5287,0,U,48043,999,25250,.30180032E-3,.123E-5,0
ONEWEB-0153,2021-025C,2026-06-09T04:02:47.109984,13.13470196,.00018562,87.8948,321.8200,96.8181,263.3160,0,U,48044,999,25249,-.78229144E-3,-.273E-5,0
ONEWEB-0154,2021-025D,2026-06-09T03:57:54.472320,13.13469491,.00017036,87.8951,321.8180,94.6897,265.4427,0,U,48045,999,25245,-.75334722E-3,-.262E-5,0
ONEWEB-0116,2021-025E,2026-06-09T04:53:57.888672,13.13469216,.00017576,87.8956,321.8067,91.1146,269.0184,0,U,48046,999,25260,.50873036E-3,.199E-5,0
ONEWEB-0150,2021-025F,2026-06-09T04:19:51.185856,13.13469838,.00020315,87.8956,321.8090,94.4772,265.6589,0,U,48047,999,25249,-.55377122E-3,-.189E-5,0
ONEWEB-0107,2021-025G,2026-06-09T04:22:17.477472,13.13470140,.00019214,87.8958,321.8046,102.3977,257.7367,0,U,48048,999,25247,-.45108757E-3,-.152E-5,0
ONEWEB-0101,2021-025H,2026-06-08T23:49:16.301856,13.13469607,.00017007,87.8947,321.8585,98.3589,261.7733,0,U,48049,999,25242,.27655293E-3,.114E-5,0
ONEWEB-0113,2021-025J,2026-06-09T04:07:27.572160,13.13894757,.00018533,87.8950,321.7341,92.6606,267.4735,0,U,48050,999,25255,-.71134603E-3,-.249E-5,0
ONEWEB-0112,2021-025K,2026-06-08T23:00:31.183200,13.13470415,.00016666,87.8957,321.8470,101.6020,258.5296,0,U,48051,999,25251,.20942454E-3,.89E-6,0
ONEWEB-0156,2021-025L,2026-06-09T04:41:47.581440,13.13470329,.0001905,87.8956,321.8098,97.5403,262.5942,0,U,48052,999,25252,.58791728E-3,.227E-5,0
ONEWEB-0161,2021-025M,2026-06-09T04:05:13.467264,13.13467605,.00021962,87.8953,321.8157,97.2210,262.9169,0,U,48053,999,25245,.9680631E-3,.366E-5,0
