ONEWEB-0130             
1 47276U 20100U   26160.26120429 -.00000314  00000+0 -90936-3 0  9999
2 47276  87.8950 352.2289 0001733  91.6736 268.4591 13.12443978263606
ONEWEB-0131             
1 47277U 20100V   26160.25780766 -.00000362  00000+0 -10405-2 0  9990
2 47277  87.8937 352.2485 0001764  89.5174 270.6157 13.12444062263648
ONEWEB-0132             
1 47278U 20100W   26160.28662642  .00000451  00000+0  12181-2 0  9996
2 47278  87.8939 352.2443 0001741  88.5103 271.6225 13.12443761263542
ONEWEB-0133             
1 47279U 20100X   26160.22718204  .00000233  00000+0  61261-3 0  9999
2 47279  87.8954 352.2311 0001657  85.9154 274.2164 13.12443731263691
ONEWEB-0134             
1 47280U 20100Y   26160.04434829  .00000096  00000+0  23235-3 0  9995
2 47280  87.8953 352.2648 0001561  93.9717 266.1590 13.12444917263648
ONEWEB-0135             
1 47281U 20100Z   26160.24425658 -.00000254  00000+0 -74230-3 0  9997
2 47281  87.8938 352.2484 0001466  89.6786 270.4511 13.12443341263698
ONEWEB-0136             
1 47282U 20100AA  26160.26289286 -.00000252  00000+0 -73555-3 0  9992
2 47282  87.8948 352.2260 0001524  95.4992 264.6310 13.12444455263623
ONEWEB-0137             
1 47283U 20100AB  26160.06807102  .00000402  00000+0  10826-2 0  9990
2 47283  87.8951 352.2740 0001941  88.7401 271.3950 13.12443281263502
ONEWEB-0138             
1 47284U 20100AC  26160.27476175  .00000143  00000+0  36215-3 0  9999
2 47284  87.8950 352.2391 0001654  95.0384 265.0933 13.12444213263615
ONEWEB-0139             
1 47285U 20100AD  26160.23931443 -.00000157  00000+0 -47293-3 0  9995
2 47285  87.8947 352.2322 0001765  90.1701 269.9630 13.12443463263688
ONEWEB-0140             
1 47286U 20100AE  26160.04096374  .00000032  00000+0  52836-4 0  9990
2 47286  87.8949 352.2627 0001702  84.2522 275.8801 13.12444002263625
ONEWEB-0141             
1 47287U 20100AF  26160.23903920 -.00000142  00000+0 -43113-3 0  9997
2 47287  87.8949 352.2279 0002090  90.7004 269.4364 13.12443265263631
ONEWEB-0142             
1 47288U 20100AG  26160.22747757  .00000241  00000+0  63395-3 0  9993
2 47288  87.8943 352.2524 0002031  99.8148 260.3210 13.12441827263624
ONEWEB-0143             
1 47289U 20100AH  26160.23748415 -.00000132  00000+0 -40301-3 0  9990
2 47289  87.8948 352.2488 0001835  88.7392 271.3947 13.12442917263606
ONEWEB-0144             
1 47290U 20100AJ  26160.28494180  .00000452  00000+0  12219-2 0  9993
2 47290  87.8952 352.2131 0001700 101.2038 258.9282 13.12444241263534
ONEWEB-0145             
1 47291U 20100AK  26160.25611807 -.00000355  00000+0 -10227-2 0  9999
2 47291  87.8942 352.2480 0001799  92.1805 267.9530 13.12443876263729
ONEWEB-0146             
1 47292U 20100AL  26160.25273245 -.00000451  00000+0 -12884-2 0  9998
2 47292  87.8949 352.2393 0001818  78.1307 282.0026 13.12443634263633
ONEWEB-0147             
1 47293U 20100AM  26160.06637808  .00000403  00000+0  10859-2 0  9992
2 47293  87.8950 352.2578 0001617  88.4831 271.6483 13.12443434263509
ONEWEB-0115             
1 48042U 21025A   26160.17706965 -.00000214  00000+0 -61992-3 0  9992
2 48042  87.8952 321.8186 0001795  92.9693 267.1641 13.13469769252542
ONEWEB-0152             
1 48043U 21025B   26160.19061270  .00000123  00000+0  30180-3 0  9990
2 48043  87.8954 321.8124 0001753  90.6043 269.5287 13.13470402252509
ONEWEB-0153             
1 48044U 21025C   26160.16860081 -.00000273  00000+0 -78229-3 0  9999
2 48044  87.8948 321.8200 0001856  96.8181 263.3160 13.13470196252493
ONEWEB-0154             
1 48045U 21025D   26160.16521380 -.00000262  00000+0 -75335-3 0  9999
2 48045  87.8951 321.8180 0001703  94.6897 265.4427 13.13469491252457
ONEWEB-0116             
1 48046U 21025E   26160.20414223  .00000199  00000+0  50873-3 0  9999
2 48046  87.8956 321.8067 0001757  91.1146 269.0184 13.13469216252607
ONEWEB-0150             
1 48047U 21025F   26160.18045354 -.00000189  00000+0 -55377-3 0  9997
2 48047  87.8956 321.8090 0002031  94.4772 265.6589 13.13469838252499
ONEWEB-0107             
1 48048U 21025G   26160.18214673 -.00000152  00000+0 -45109-3 0  9992
2 48048  87.8958 321.8046 0001921 102.3977 257.7367 13.13470140252478
ONEWEB-0101             
1 48049U 21025H   26159.99254979  .00000114  00000+0  27655-3 0  9995
2 48049  87.8947 321.8585 0001700  98.3589 261.7733 13.13469607252426
ONEWEB-0113             
1 48050U 21025J   26160.17184690 -.00000249  00000+0 -71135-3 0  9994
2 48050  87.8950 321.7341 0001853  92.6606 267.4735 13.13894757252554
ONEWEB-0112             
1 48051U 21025K   26159.95869425  .00000089  00000+0  20942-3 0  9995
2 48051  87.8957 321.8470 0001666 101.6020 258.5296 13.13470415252519
ONEWEB-0156             
1 48052U 21025L   26160.19568960  .00000227  00000+0  58792-3 0  9992
2 48052  87.8956 321.8098 0001905  97.5403 262.5942 13.13470329252527
ONEWEB-0161             
1 48053U 21025M   26160.17029476  .00000366  00000+0  96806-3 0  9997
2 48053  87.8953 321.8157 0002196  97.2210 262.9169 13.13467605252457
